"spkid","H","diameter","albedo","rot_per","GM","BV","UB","IR","epoch","epoch_mjd","e","a","q","i","om","w","ma","ad","tp","per"
1000036,,11.0,0.04,,,,,,2439907.5,39907,0.9679,17.93,0.575,162.20,59.07,112.21,274.81,35.28,2446469.70,2.77e+04
1000025,,4.8,0.046,11.083,,,,,2459766.5,59766,0.8484,2.22,0.337,11.48,334.29,187.03,219.12,4.10,2460239.15,1.21e+03
1000504,,,,,,,,,2390520.5,-9480,0.7513,3.535,0.879,13.22,250.67,221.66,0.95,6.19,2390514.12,2.43e+03
1000505,,,,,,,,,2407440.5,7440,0.8098,3.101,0.590,29.38,102.97,14.95,0.17,5.61,2407439.53,1.99e+03
1000069,,5.2,,,,,,,2457137.5,57137,0.6376,3.419,1.239,22.33,93.42,172.51,13.17,5.60,2457053.03,2.31e+03
1000099,,4.5,,,,,,,2454701.5,54701,0.8198,5.7,1.027,54.98,270.34,207.51,15.13,10.37,2454492.52,4.97e+03
1000068,,,,,,,,,2460209.5,60209,0.9546,17.18,0.781,74.19,255.86,198.99,357.07,33.59,2460421.63,2.6e+04
1000066,,,,,,,,,2458928.5,58928,0.9298,16.66,1.170,44.63,85.84,64.58,337.34,32.16,2460492.15,2.48e+04
1000027,,,,,,,,,2457327.5,57327,0.7202,3.49,0.977,6.80,13.75,347.63,46.69,6.00,2457018.57,2.38e+03
1000144,,,,,,,,,2440240.5,40240,0.6426,3.56,1.272,17.76,240.88,166.05,11.51,5.85,2440162.04,2.45e+03
1000212,,,,,,,,,2420080.5,20080,0.9198,15.64,1.254,40.89,348.01,57.08,359.72,30.03,2420098.29,2.26e+04
1000032,,2.0,,,,,,,2458065.5,58065,0.7105,3.5,1.013,32.00,195.40,172.81,313.91,5.99,2458371.77,2.39e+03
1000009,,,,,,,,,2447800.5,47800,0.9720,17.07,0.479,19.33,311.59,129.61,0.27,33.66,2447781.44,2.58e+04
1000077,,2.6,,,,,,,2457350.5,57350,0.7048,4.086,1.206,11.73,79.67,58.00,273.65,6.97,2458074.26,3.02e+03
1000034,,2.6,,,,,,,2455951.5,55951,0.6391,3.027,1.093,22.47,211.66,1.80,261.15,4.96,2456479.65,1.92e+03
1000016,,,,,,,,,2452489.5,52489,0.9193,9.093,0.734,29.22,250.96,195.96,241.87,17.45,2455776.07,1e+04
1000284,,,,,,,,,2429080.5,29080,0.7607,4.944,1.183,11.73,67.92,209.16,1.12,8.70,2429067.98,4.02e+03
1000043,,,,,,,,,2429480.5,29480,0.9740,28.84,0.748,64.21,355.98,29.30,359.97,56.94,2429484.96,5.66e+04
1000100,,1.4,,,,,,,2457857.5,57857,0.6613,3.085,1.045,9.23,141.06,62.17,0.23,5.13,2457856.25,1.98e+03
1000045,,1.6,,,,,,,2457979.5,57979,0.8240,3.026,0.533,4.25,88.93,326.34,42.26,5.52,2457753.78,1.92e+03
1000109,,1.2,,,,,,,2458465.5,58465,0.6588,3.093,1.055,11.75,82.16,356.34,0.01,5.13,2458465.43,1.99e+03
1000095,,3.6,0.06,,,,,,2451040.5,51040,0.9056,10.34,0.976,162.49,235.27,172.50,4.98,19.70,2450872.60,1.21e+04
1000021,,,,,,,,,2456961.5,56961,0.7866,6.023,1.285,18.67,22.00,257.34,273.48,10.76,2458258.97,5.4e+03
1000012,,3.4,,12.76129,662.2e-9,,,,2457305.5,57305,0.6409,3.462,1.243,7.04,50.14,12.80,8.86,5.68,2457247.59,2.35e+03
1000020,,,,,,,,,2457286.5,57286,0.8205,4.347,0.781,9.23,35.44,338.47,47.38,7.91,2456850.78,3.31e+03
1000394,,,,,,,,,2457800.5,57800,0.6855,3.091,0.972,11.24,69.66,199.39,354.77,5.21,2457829.34,1.99e+03
1003776,,,,,,,,,2450080.5,50080,0.6957,3.067,0.933,11.42,69.94,198.83,17.81,5.20,2449983.43,1.96e+03
1000320,,,,,,,,,2453880.5,53880,0.6933,3.062,0.939,11.40,69.89,198.80,357.44,5.18,2453894.42,1.96e+03
1000081,,,,,,,,,2455980.5,55980,0.6922,3.063,0.943,11.38,69.84,198.87,23.73,5.18,2455851.40,1.96e+03
1000324,,,,,,,,,2451920.5,51920,0.6939,3.062,0.937,11.41,69.92,198.77,356.79,5.19,2451937.95,1.96e+03
1002326,,,,,,,,,2453839.5,53839,0.6934,3.063,0.939,11.39,69.91,198.77,349.87,5.19,2453894.60,1.96e+03
1002327,,,,,,,,,2453839.5,53839,0.6936,3.065,0.939,11.39,69.91,198.77,349.85,5.19,2453894.78,1.96e+03
1002336,,,,,,,,,2453815.5,53815,0.6915,3.044,0.939,11.38,69.83,198.87,345.31,5.15,2453894.65,1.94e+03
1002332,,,,,,,,,2453839.5,53839,0.6935,3.064,0.939,11.39,69.90,198.79,349.85,5.19,2453894.72,1.96e+03
1002334,,,,,,,,,2453839.5,53839,0.6947,3.076,0.939,11.40,69.94,198.75,349.89,5.21,2453894.83,1.97e+03
1002331,,,,,,,,,2453839.5,53839,0.6939,3.068,0.939,11.39,69.91,198.78,349.87,5.20,2453894.76,1.96e+03
1002338,,,,,,,,,2453839.5,53839,0.6923,3.052,0.939,11.38,69.90,198.76,349.79,5.17,2453894.77,1.95e+03
1002335,,,,,,,,,2453839.5,53839,0.6956,3.085,0.939,11.41,69.96,198.72,350.02,5.23,2453894.35,1.98e+03
1002333,,,,,,,,,2453839.5,53839,0.6986,3.118,0.940,11.42,70.14,198.50,350.21,5.30,2453894.18,2.01e+03
1002339,,,,,,,,,2453839.5,53839,0.6941,3.07,0.939,11.39,69.91,198.77,349.89,5.20,2453894.68,1.96e+03
1002340,,,,,,,,,2453839.5,53839,0.6934,3.334,1.022,11.05,81.99,181.56,350.97,5.65,2453895.26,2.22e+03
1002341,,,,,,,,,2454375.5,54375,0.6930,3.061,0.940,11.40,69.89,198.81,88.38,5.18,2453895.36,1.96e+03
1002342,,,,,,,,,2453839.5,53839,0.6894,3.024,0.939,11.36,69.83,198.84,349.50,5.11,2453895.54,1.92e+03
1002343,,,,,,,,,2453824.5,53824,0.6935,3.002,0.920,11.57,66.63,203.11,346.61,5.08,2453895.16,1.9e+03
1002344,,,,,,,,,2453834.5,53834,0.6983,3.112,0.939,11.42,70.04,198.63,349.15,5.29,2453894.96,2.01e+03
1002345,,,,,,,,,2453838.5,53838,0.6954,3.083,0.939,11.40,69.94,198.74,349.70,5.23,2453895.05,1.98e+03
1002346,,,,,,,,,2453828.5,53828,0.7181,3.332,0.939,11.55,70.63,198.01,349.21,5.72,2453895.10,2.22e+03
1002348,,,,,,,,,2453830.5,53830,0.6934,3.073,0.942,11.34,70.58,197.91,348.24,5.20,2453894.81,1.97e+03
1002349,,,,,,,,,2453839.5,53839,0.6806,2.941,0.939,11.30,69.57,199.11,349.02,4.94,2453895.67,1.84e+03
1002350,,,,,,,,,2453856.5,53856,0.6912,3.042,0.939,11.37,69.86,198.82,352.81,5.14,2453895.21,1.94e+03
1002351,,,,,,,,,2453856.5,53856,0.6954,3.083,0.939,11.41,69.93,198.75,352.96,5.23,2453895.18,1.98e+03
1002352,,,,,,,,,2453839.5,53839,0.6934,3.068,0.941,11.37,70.22,198.37,349.79,5.19,2453895.18,1.96e+03
1002353,,,,,,,,,2453839.5,53839,0.6967,3.096,0.939,11.41,69.97,198.71,349.99,5.25,2453894.83,1.99e+03
1002354,,,,,,,,,2453839.5,53839,0.6763,2.908,0.941,11.24,69.85,198.72,349.26,4.87,2453893.51,1.81e+03
1002355,,,,,,,,,2453839.5,53839,0.6958,3.087,0.939,11.41,69.96,198.71,349.82,5.23,2453895.50,1.98e+03
1002356,,,,,,,,,2453839.5,53839,0.6934,3.075,0.943,11.33,70.71,197.74,349.83,5.21,2453895.13,1.97e+03
1002357,,,,,,,,,2453836.5,53836,0.6982,3.111,0.939,11.43,69.97,198.73,349.45,5.28,2453895.20,2e+03
1002358,,,,,,,,,2453833.5,53833,0.6624,2.786,0.941,11.14,69.39,199.21,346.88,4.63,2453895.42,1.7e+03
1002359,,,,,,,,,2453839.5,53839,0.6934,3.058,0.938,11.43,69.38,199.33,349.79,5.18,2453894.88,1.95e+03
1002360,,,,,,,,,2453839.5,53839,0.6998,3.128,0.939,11.44,69.98,198.72,350.13,5.32,2453894.91,2.02e+03
1002361,,,,,,,,,2453839.5,53839,0.6934,3.036,0.931,11.54,68.12,201.09,349.71,5.14,2453894.70,1.93e+03
1002363,,,,,,,,,2453839.5,53839,0.6948,3.076,0.939,11.41,69.89,198.80,349.90,5.21,2453894.82,1.97e+03
1002364,,,,,,,,,2453839.5,53839,0.6938,3.072,0.941,11.33,70.39,198.17,349.96,5.20,2453894.35,1.97e+03
1002365,,,,,,,,,2453856.5,53856,0.7014,3.144,0.939,11.47,69.97,198.74,353.53,5.35,2453893.11,2.04e+03
1002366,,,,,,,,,2453856.5,53856,0.6959,3.088,0.939,11.41,69.92,198.77,353.12,5.24,2453894.40,1.98e+03
1002367,,,,,,,,,2453839.5,53839,0.6958,3.087,0.939,11.41,69.97,198.71,350.22,5.24,2453893.31,1.98e+03
1002368,,,,,,,,,2453852.5,53852,0.7011,3.141,0.939,11.46,69.98,198.72,352.87,5.34,2453892.76,2.03e+03
1002369,,,,,,,,,2453839.5,53839,0.6869,3.001,0.940,11.33,69.85,198.81,349.90,5.06,2453892.79,1.9e+03
1002370,,,,,,,,,2453839.5,53839,0.6928,3.058,0.939,11.38,69.91,198.76,349.84,5.18,2453894.60,1.95e+03
1002371,,,,,,,,,2453839.5,53839,0.6934,3.062,0.939,11.40,69.87,198.86,350.16,5.19,2453893.00,1.96e+03
1002372,,,,,,,,,2453846.5,53846,0.6482,2.678,0.942,10.98,69.48,199.09,349.16,4.41,2453894.67,1.6e+03
1002373,,,,,,,,,2453839.5,53839,0.6925,3.05,0.938,11.43,69.47,199.25,349.55,5.16,2453896.00,1.95e+03
1002374,,,,,,,,,2453846.5,53846,0.6640,2.8,0.941,11.13,69.59,199.02,349.69,4.66,2453895.49,1.71e+03
1002375,,,,,,,,,2453847.5,53847,0.6441,2.647,0.942,10.93,69.50,199.04,349.47,4.35,2453893.50,1.57e+03
1002376,,,,,,,,,2453839.5,53839,0.6824,2.961,0.940,11.27,69.92,198.69,349.64,4.98,2453893.04,1.86e+03
1002377,,,,,,,,,2453839.5,53839,0.6824,2.968,0.942,11.19,70.47,197.93,349.57,4.99,2453893.59,1.87e+03
1002378,,,,,,,,,2453856.5,53856,0.7005,3.134,0.939,11.46,69.96,198.75,353.50,5.33,2453893.11,2.03e+03
1002379,,,,,,,,,2453839.5,53839,0.6824,2.979,0.946,10.97,71.42,196.46,349.81,5.01,2453892.68,1.88e+03
1002380,,,,,,,,,2453839.5,53839,0.6824,2.958,0.939,11.32,69.69,199.00,349.54,4.98,2453893.48,1.86e+03
1002381,,,,,,,,,2453856.5,53856,0.6857,2.989,0.940,11.32,69.83,198.81,352.93,5.04,2453893.56,1.89e+03
1002382,,,,,,,,,2453839.5,53839,0.6848,2.98,0.939,11.32,69.72,198.95,349.31,5.02,2453895.31,1.88e+03
1002383,,,,,,,,,2453839.5,53839,0.6824,2.959,0.940,11.29,69.80,198.84,349.23,4.98,2453895.15,1.86e+03
1002384,,,,,,,,,2453856.5,53856,0.6825,2.96,0.940,11.30,69.75,198.91,352.50,4.98,2453895.23,1.86e+03
1002385,,,,,,,,,2453839.5,53839,0.6911,3.041,0.939,11.37,69.88,198.80,349.65,5.14,2453895.19,1.94e+03
1002386,,,,,,,,,2453839.5,53839,0.6915,3.045,0.939,11.37,69.90,198.78,349.63,5.15,2453895.40,1.94e+03
1002387,,,,,,,,,2453839.5,53839,0.6962,3.091,0.939,11.41,69.97,198.70,349.87,5.24,2453895.36,1.99e+03
1002388,,,,,,,,,2453839.5,53839,0.6824,2.959,0.940,11.29,69.78,198.86,349.15,4.98,2453895.52,1.86e+03
1002390,,,,,,,,,2453856.5,53856,0.6918,3.047,0.939,11.38,69.88,198.79,352.92,5.15,2453894.71,1.94e+03
1002391,,,,,,,,,2453856.5,53856,0.6918,3.048,0.939,11.38,69.89,198.77,352.91,5.16,2453894.77,1.94e+03
1002392,,,,,,,,,2453856.5,53856,0.6825,2.96,0.940,11.29,69.81,198.85,352.57,4.98,2453894.89,1.86e+03
1002393,,,,,,,,,2453856.5,53856,0.6925,3.054,0.939,11.39,69.87,198.82,352.93,5.17,2453894.80,1.95e+03
1002395,,,,,,,,,2453856.5,53856,0.6852,2.984,0.940,11.32,69.83,198.84,353.07,5.03,2453892.74,1.88e+03
1002396,,,,,,,,,2453856.5,53856,0.6986,3.115,0.939,11.44,69.94,198.77,353.59,5.29,2453892.28,2.01e+03
1003506,,,,,,,,,2457821.5,57821,0.6856,3.092,0.972,11.24,69.66,199.35,358.58,5.21,2457829.32,1.99e+03
1003864,,,,,,,,,2459786.5,59786,0.6677,2.888,0.960,11.05,70.74,199.85,354.01,4.82,2459816.33,1.79e+03
1003865,,,,,,,,,2459790.5,59790,0.6892,3.134,0.974,11.24,69.52,199.39,355.38,5.29,2459816.50,2.03e+03
